ONEWEB-0066             
1 45424U 20020A   24041.87580237  .00000325  00000+0  88088-3 0  9998
2 45424  87.8996 191.4791 0001866  89.6752 270.4589 13.11415130190317
ONEWEB-0067             
1 45425U 20020B   24042.43340126 -.00000463  00000+0 -13408-2 0  9991
2 45425  87.8988 191.3341 0001746 104.6920 255.4402 13.11417710190459
ONEWEB-0080             
1 45426U 20020C   24041.92449618  .00000179  00000+0  46915-3 0  9993
2 45426  87.8999 191.4730 0001719  86.3211 273.8113 13.11419071190347
ONEWEB-0090             
1 45427U 20020D   24041.94236278  .00000556  00000+0  15316-2 0  9991
2 45427  87.9001 191.4472 0001568  93.9671 266.1636 13.11416552190315
ONEWEB-0061             
1 45428U 20020E   24042.43260530 -.00000451  00000+0 -13085-2 0  9992
2 45428  87.8997 191.3542 0001604  99.1116 261.0193 13.11415356190334
ONEWEB-0081             
1 45429U 20020F   24041.87904559  .00000109  00000+0  27249-3 0  9992
2 45429  87.8998 191.4798 0001788  99.7843 260.3487 13.11414129190375
ONEWEB-0069             
1 45430U 20020G   24041.94560716  .00000459  00000+0  12606-2 0  9993
2 45430  87.8997 191.4550 0001507  95.4748 264.6552 13.11415169190317
ONEWEB-0031             
1 45431U 20020H   24041.91638691 -.00000149  00000+0 -45698-3 0  9995
2 45431  87.9006 191.4616 0001303 105.7188 254.4083 13.11419289190290
